{
  "type": "FeatureCollection",
  "features": [
    {
      "type": "Feature",
      "properties": {
        "norad_id": 41330,
        "name": "COSMOS 2514 (751)",
        "group": "gnss",
        "lat": 44.37414112881284,
        "lon": -14.14313089062562,
        "alt_km": 19153.522883133322,
        "timestamp": "2025-12-27T14:26:30.764263+00:00",
        "meta_object_name": "COSMOS 2514 (751)",
        "meta_object_id": "2016-008A",
        "meta_epoch": "2025-12-27T01:35:56.250528",
        "meta_mean_motion": 2.13102531,
        "meta_eccentricity": 0.00114841,
        "meta_inclination": 65.1254,
        "meta_ra_of_asc_node": 318.9135,
        "meta_arg_of_pericenter": 219.9795,
        "meta_mean_anomaly": 139.9404,
        "meta_ephemeris_type": 0,
        "meta_classification_type": "U",
        "meta_norad_cat_id": 41330,
        "meta_element_set_no": 999,
        "meta_rev_at_epoch": 7695,
        "meta_bstar": 0,
        "meta_mean_motion_dot": -3.7e-07,
        "meta_mean_motion_ddot": 0,
        "tle_line1": "1 41330U 16008A   25361.06662327 -.00000037  00000+0  00000+0 0  9994",
        "tle_line2": "2 41330  65.1254 318.9135 0011484 219.9795 139.9404  2.13102531 76951"
      },
      "geometry": {
        "type": "Point",
        "coordinates": [
          -14.14313089062562,
          44.37414112881284
        ]
      }
    },
    {
      "type": "Feature",
      "properties": {
        "norad_id": 41384,
        "name": "IRNSS-1F",
        "group": "gnss",
        "lat": -4.456792043202691,
        "lon": -14.427136960880992,
        "alt_km": 35747.28341604082,
        "timestamp": "2025-12-27T14:26:30.764278+00:00",
        "meta_object_name": "IRNSS-1F",
        "meta_object_id": "2016-015A",
        "meta_epoch": "2025-12-26T23:27:37.637280",
        "meta_mean_motion": 1.00265593,
        "meta_eccentricity": 0.00217373,
        "meta_inclination": 4.917,
        "meta_ra_of_asc_node": 100.9484,
        "meta_arg_of_pericenter": 181.1315,
        "meta_mean_anomaly": 198.0284,
        "meta_ephemeris_type": 0,
        "meta_classification_type": "U",
        "meta_norad_cat_id": 41384,
        "meta_element_set_no": 999,
        "meta_rev_at_epoch": 3594,
        "meta_bstar": 0,
        "meta_mean_motion_dot": 1.79e-06,
        "meta_mean_motion_ddot": 0,
        "tle_line1": "1 41384U 16015A   25360.97751895  .00000179  00000+0  00000+0 0  9995",
        "tle_line2": "2 41384   4.9170 100.9484 0021737 181.1315 198.0284  1.00265593 35943"
      },
      "geometry": {
        "type": "Point",
        "coordinates": [
          -14.427136960880992,
          -4.456792043202691
        ]
      }
    },
    {
      "type": "Feature",
      "properties": {
        "norad_id": 41434,
        "name": "BEIDOU-2 IGSO-6 (C13)",
        "group": "gnss",
        "lat": 6.394844700936315,
        "lon": 43.490906852062025,
        "alt_km": 35967.534558492254,
        "timestamp": "2025-12-27T14:26:30.764290+00:00",
        "meta_object_name": "BEIDOU-2 IGSO-6 (C13)",
        "meta_object_id": "2016-021A",
        "meta_epoch": "2025-12-25T02:21:14.682240",
        "meta_mean_motion": 1.00290736,
        "meta_eccentricity": 0.00608236,
        "meta_inclination": 59.9818,
        "meta_ra_of_asc_node": 39.7747,
        "meta_arg_of_pericenter": 230.5129,
        "meta_mean_anomaly": 312.5474,
        "meta_ephemeris_type": 0,
        "meta_classification_type": "U",
        "meta_norad_cat_id": 41434,
        "meta_element_set_no": 999,
        "meta_rev_at_epoch": 3573,
        "meta_bstar": 0,
        "meta_mean_motion_dot": -1.35e-06,
        "meta_mean_motion_ddot": 0,
        "tle_line1": "1 41434U 16021A   25359.09808660 -.00000135  00000+0  00000+0 0  9995",
        "tle_line2": "2 41434  59.9818  39.7747 0060823 230.5129 312.5474  1.00290736 35738"
      },
      "geometry": {
        "type": "Point",
        "coordinates": [
          43.490906852062025,
          6.394844700936315
        ]
      }
    },
    {
      "type": "Feature",
      "properties": {
        "norad_id": 41469,
        "name": "IRNSS-1G",
        "group": "gnss",
        "lat": -1.5478818160251568,
        "lon": 82.60100186497115,
        "alt_km": 35774.88662310365,
        "timestamp": "2025-12-27T14:26:30.764305+00:00",
        "meta_object_name": "IRNSS-1G",
        "meta_object_id": "2016-027A",
        "meta_epoch": "2025-12-26T21:28:52.002912",
        "meta_mean_motion": 1.00272957,
        "meta_eccentricity": 0.00027364,
        "meta_inclination": 4.7693,
        "meta_ra_of_asc_node": 101.7363,
        "meta_arg_of_pericenter": 325.7719,
        "meta_mean_anomaly": 119.9166,
        "meta_ephemeris_type": 0,
        "meta_classification_type": "U",
        "meta_norad_cat_id": 41469,
        "meta_element_set_no": 999,
        "meta_rev_at_epoch": 3545,
        "meta_bstar": 0,
        "meta_mean_motion_dot": -3.13e-06,
        "meta_mean_motion_ddot": 0,
        "tle_line1": "1 41469U 16027A   25360.89504633 -.00000313  00000+0  00000+0 0  9990",
        "tle_line2": "2 41469   4.7693 101.7363 0002736 325.7719 119.9166  1.00272957 35451"
      },
      "geometry": {
        "type": "Point",
        "coordinates": [
          82.60100186497115,
          -1.5478818160251568
        ]
      }
    },
    {
      "type": "Feature",
      "properties": {
        "norad_id": 41549,
        "name": "GSAT0211 (GALILEO 14)",
        "group": "gnss",
        "lat": 41.519968589652386,
        "lon": -95.49679764210649,
        "alt_km": 23207.903982035034,
        "timestamp": "2025-12-27T14:26:30.764316+00:00",
        "meta_object_name": "GSAT0211 (GALILEO 14)",
        "meta_object_id": "2016-030A",
        "meta_epoch": "2025-12-25T18:06:09.128448",
        "meta_mean_motion": 1.70473226,
        "meta_eccentricity": 0.00039908,
        "meta_inclination": 55.1481,
        "meta_ra_of_asc_node": 226.465,
        "meta_arg_of_pericenter": 16.0221,
        "meta_mean_anomaly": 344.0794,
        "meta_ephemeris_type": 0,
        "meta_classification_type": "U",
        "meta_norad_cat_id": 41549,
        "meta_element_set_no": 999,
        "meta_rev_at_epoch": 5971,
        "meta_bstar": 0,
        "meta_mean_motion_dot": 7e-07,
        "meta_mean_motion_ddot": 0,
        "tle_line1": "1 41549U 16030A   25359.75427232  .00000070  00000+0  00000+0 0  9994",
        "tle_line2": "2 41549  55.1481 226.4650 0003990  16.0221 344.0794  1.70473226 59712"
      },
      "geometry": {
        "type": "Point",
        "coordinates": [
          -95.49679764210649,
          41.519968589652386
        ]
      }
    },
    {
      "type": "Feature",
      "properties": {
        "norad_id": 41550,
        "name": "GSAT0210 (GALILEO 13)",
        "group": "gnss",
        "lat": -52.734365156776896,
        "lon": 112.70804981588627,
        "alt_km": 23227.258315997897,
        "timestamp": "2025-12-27T14:26:30.764327+00:00",
        "meta_object_name": "GSAT0210 (GALILEO 13)",
        "meta_object_id": "2016-030B",
        "meta_epoch": "2025-12-26T00:16:47.841312",
        "meta_mean_motion": 1.70473562,
        "meta_eccentricity": 5.77e-05,
        "meta_inclination": 55.1475,
        "meta_ra_of_asc_node": 226.456,
        "meta_arg_of_pericenter": 190.7717,
        "meta_mean_anomaly": 169.315,
        "meta_ephemeris_type": 0,
        "meta_classification_type": "U",
        "meta_norad_cat_id": 41550,
        "meta_element_set_no": 999,
        "meta_rev_at_epoch": 5971,
        "meta_bstar": 0,
        "meta_mean_motion_dot": 7e-07,
        "meta_mean_motion_ddot": 0,
        "tle_line1": "1 41550U 16030B   25360.01166483  .00000070  00000+0  00000+0 0  9995",
        "tle_line2": "2 41550  55.1475 226.4560 0000577 190.7717 169.3150  1.70473562 59712"
      },
      "geometry": {
        "type": "Point",
        "coordinates": [
          112.70804981588627,
          -52.734365156776896
        ]
      }
    },
    {
      "type": "Feature",
      "properties": {
        "norad_id": 41586,
        "name": "BEIDOU-2 G7 (C03)",
        "group": "gnss",
        "lat": -0.12780795334045852,
        "lon": 63.341794497470126,
        "alt_km": 35765.64337991543,
        "timestamp": "2025-12-27T14:26:30.764339+00:00",
        "meta_object_name": "BEIDOU-2 G7 (C03)",
        "meta_object_id": "2016-037A",
        "meta_epoch": "2025-12-26T15:50:23.467776",
        "meta_mean_motion": 1.00267732,
        "meta_eccentricity": 0.0005163,
        "meta_inclination": 1.7889,
        "meta_ra_of_asc_node": 67.91,
        "meta_arg_of_pericenter": 0.4521,
        "meta_mean_anomaly": 15.0455,
        "meta_ephemeris_type": 0,
        "meta_classification_type": "U",
        "meta_norad_cat_id": 41586,
        "meta_element_set_no": 999,
        "meta_rev_at_epoch": 516,
        "meta_bstar": 0,
        "meta_mean_motion_dot": -3.31e-06,
        "meta_mean_motion_ddot": 0,
        "tle_line1": "1 41586U 16037A   25360.65999384 -.00000331  00000+0  00000+0 0  9996",
        "tle_line2": "2 41586   1.7889  67.9100 0005163   0.4521  15.0455  1.00267732  5169"
      },
      "geometry": {
        "type": "Point",
        "coordinates": [
          63.341794497470126,
          -0.12780795334045852
        ]
      }
    }
  ]
}